EUTELSAT 7A             
1 28187U 04008A   25254.20355323  .00000101  00000+0  00000+0 0  9999
2 28187   5.1162  75.3298 0001098  84.4680 124.7891  1.00266467 78554
EUTELSAT 174A           
1 28924U 05052A   25254.19427987  .00000007  00000+0  00000+0 0  9997
2 28924   3.5065  79.9897 0006162  93.6675  60.7356  1.00271679 49537
EUTELSAT HOTBIRD 13B    
1 29270U 06032A   25254.23770005  .00000153  00000+0  00000+0 0  9990
2 29270   0.9349  85.3317 0003951  83.4670 300.3660  1.00272493 44510
EUTELSAT HOTBIRD 13C    
1 33459U 08065A   25254.22860001 -.00000103  00000+0  00000+0 0  9993
2 33459   2.2272  82.5069 0004548 113.1485 224.6517  1.00271310 44544
EUTELSAT 36B            
1 36101U 09065A   25254.24116674  .00000108  00000+0  00000+0 0  9997
2 36101   0.0636 341.1234 0005730 197.4519 309.2718  1.00274704 57914
EUTELSAT KA-SAT 9A      
1 37258U 10069A   25254.16151973  .00000058  00000+0  00000+0 0  9993
2 37258   0.0538 327.9570 0003192 170.0494 279.5503  1.00269261 41201
EUTELSAT 7 WEST A       
1 37816U 11051A   25254.22209503 -.00000063  00000+0  00000+0 0  9992
2 37816   0.0647   0.7129 0005977 179.7607 242.6563  1.00270950 51084
EUTELSAT 16A            
1 37836U 11057A   25254.23423337  .00000101  00000+0  00000+0 0  9996
2 37836   0.0646 356.4414 0005399 172.6495 281.7221  1.00272094  4532
